[{"OBJECT_NAME":"CSTP 1.2 (STC 1.2)","OBJECT_ID":"2023-091W","EPOCH":"2026-03-09T23:12:27.821952","MEAN_MOTION":15.2718076,"ECCENTRICITY":0.00204388,"INCLINATION":97.5258,"RA_OF_ASC_NODE":134.3262,"ARG_OF_PERICENTER":84.9592,"MEAN_ANOMALY":275.3979,"EPHEMERIS_TYPE":0,"CLASSIFICATION_TYPE":"U","NORAD_CAT_ID":57186,"ELEMENT_SET_NO":999,"REV_AT_EPOCH":14930,"BSTAR":0.00043035718,"MEAN_MOTION_DOT":0.00011466,"MEAN_MOTION_DDOT":0},{"OBJECT_NAME":"STARLINK-34363","OBJECT_ID":"2025-133AB","EPOCH":"2026-03-09T10:47:30.152256","MEAN_MOTION":15.30124969,"ECCENTRICITY":0.0001463,"INCLINATION":53.161,"RA_OF_ASC_NODE":117.7629,"ARG_OF_PERICENTER":77.999,"MEAN_ANOMALY":282.1175,"EPHEMERIS_TYPE":0,"CLASSIFICATION_TYPE":"U","NORAD_CAT_ID":64497,"ELEMENT_SET_NO":999,"REV_AT_EPOCH":4115,"BSTAR":0.00045496528,"MEAN_MOTION_DOT":0.00013108,"MEAN_MOTION_DDOT":0}]
